{
    "links": {
        "self": "http://www.neowsapp.com/rest/v1/neo/3350635?api_key=iIulBulltgU6a56xZRHN4H3l9WmuAYTsLGpBGhQ2"
    },
    "id": "3350635",
    "neo_reference_id": "3350635",
    "name": "(2006 TC8)",
    "designation": "2006 TC8",
    "nasa_jpl_url": "http://ssd.jpl.nasa.gov/sbdb.cgi?sstr=3350635",
    "absolute_magnitude_h": 19.9,
    "estimated_diameter": {
        "kilometers": {
            "estimated_diameter_min": 0.2783267681,
            "estimated_diameter_max": 0.6223575734
        },
        "meters": {
            "estimated_diameter_min": 278.3267680719,
            "estimated_diameter_max": 622.3575733667
        },
        "miles": {
            "estimated_diameter_min": 0.1729441822,
            "estimated_diameter_max": 0.3867149477
        },
        "feet": {
            "estimated_diameter_min": 913.1455937611,
            "estimated_diameter_max": 2041.8556210042
        }
    },
    "is_potentially_hazardous_asteroid": false,
    "close_approach_data": [
        {
            "close_approach_date": "2000-03-07",
            "close_approach_date_full": "2000-Mar-07 09:11",
            "epoch_date_close_approach": 952420260000,
            "relative_velocity": {
                "kilometers_per_second": "38.2526392483",
                "kilometers_per_hour": "137709.5012937659",
                "miles_per_hour": "85567.3287344514"
            },
            "miss_distance": {
                "astronomical": "0.4063301443",
                "lunar": "158.0624261327",
                "kilometers": "60786124.104072641",
                "miles": "37770746.0655028058"
            },
            "orbiting_body": "Earth"
        },
        {
            "close_approach_date": "2006-10-01",
            "close_approach_date_full": "2006-Oct-01 07:46",
            "epoch_date_close_approach": 1159688760000,
            "relative_velocity": {
                "kilometers_per_second": "24.328114585",
                "kilometers_per_hour": "87581.2125059262",
                "miles_per_hour": "54419.5595151406"
            },
            "miss_distance": {
                "astronomical": "0.208875364",
                "lunar": "81.252516596",
                "kilometers": "31247309.54987468",
                "miles": "19416177.814163384"
            },
            "orbiting_body": "Earth"
        },
        {
            "close_approach_date": "2139-04-05",
            "close_approach_date_full": "2139-Apr-05 09:06",
            "epoch_date_close_approach": 5341280760000,
            "relative_velocity": {
                "kilometers_per_second": "26.6000279167",
                "kilometers_per_hour": "95760.100500223",
                "miles_per_hour": "59501.6024469302"
            },
            "miss_distance": {
                "astronomical": "0.2351582271",
                "lunar": "91.4765503419",
                "kilometers": "35179169.887136277",
                "miles": "21859322.5376115426"
            },
            "orbiting_body": "Earth"
        },
        {
            "close_approach_date": "2145-10-18",
            "close_approach_date_full": "2145-Oct-18 09:54",
            "epoch_date_close_approach": 5547606840000,
            "relative_velocity": {
                "kilometers_per_second": "35.1540161593",
                "kilometers_per_hour": "126554.4581733356",
                "miles_per_hour": "78636.0187466485"
            },
            "miss_distance": {
                "astronomical": "0.2566260107",
                "lunar": "99.8275181623",
                "kilometers": "38390704.587317209",
                "miles": "23854877.6651831242"
            },
            "orbiting_body": "Earth"
        }
    ],
    "orbital_data": {
        "orbit_id": "17",
        "orbit_determination_date": "2017-04-06 09:07:55",
        "first_observation_date": "2006-10-12",
        "last_observation_date": "2006-11-11",
        "data_arc_in_days": 30,
        "observations_used": 79,
        "orbit_uncertainty": "7",
        "minimum_orbit_intersection": ".124307",
        "jupiter_tisserand_invariant": "3.127",
        "epoch_osculation": "2459000.5",
        "eccentricity": ".7609230623865099",
        "semi_major_axis": "2.154921349459509",
        "inclination": "31.51498931976138",
        "ascending_node_longitude": "204.2447234354396",
        "orbital_period": "1155.435116458181",
        "perihelion_distance": ".5151919970267089",
        "perihelion_argument": "67.48733070103775",
        "aphelion_distance": "3.794650701892308",
        "perihelion_time": "2458576.495215687360",
        "mean_anomaly": "132.1075672517653",
        "mean_motion": ".3115709353750021",
        "equinox": "J2000",
        "orbit_class": {
            "orbit_class_type": "APO",
            "orbit_class_description": "Near-Earth asteroid orbits which cross the Earth’s orbit similar to that of 1862 Apollo",
            "orbit_class_range": "a (semi-major axis) > 1.0 AU; q (perihelion) < 1.017 AU"
        }
    },
    "is_sentry_object": false
}